[{"OBJECT_NAME":"STARLINK-3004","OBJECT_ID":"2021-059B","EPOCH":"2026-03-09T21:19:55.223904","MEAN_MOTION":15.01258246,"ECCENTRICITY":0.00021244,"INCLINATION":97.6585,"RA_OF_ASC_NODE":195.4969,"ARG_OF_PERICENTER":73.0691,"MEAN_ANOMALY":287.0766,"EPHEMERIS_TYPE":0,"CLASSIFICATION_TYPE":"U","NORAD_CAT_ID":48880,"ELEMENT_SET_NO":999,"REV_AT_EPOCH":25883,"BSTAR":-1.697335e-6,"MEAN_MOTION_DOT":-8.1e-7,"MEAN_MOTION_DDOT":0},{"OBJECT_NAME":"USA 74","OBJECT_ID":"1991-076C","EPOCH":"2026-03-09T09:43:12.293760","MEAN_MOTION":13.60278419,"ECCENTRICITY":0.0885176,"INCLINATION":63.2967,"RA_OF_ASC_NODE":52.2144,"ARG_OF_PERICENTER":71.2929,"MEAN_ANOMALY":298.2018,"EPHEMERIS_TYPE":0,"CLASSIFICATION_TYPE":"U","NORAD_CAT_ID":21799,"ELEMENT_SET_NO":999,"REV_AT_EPOCH":9002,"BSTAR":0.00057492031,"MEAN_MOTION_DOT":7.663e-5,"MEAN_MOTION_DDOT":0}]
